     2.100          NAVIGATION                              RINEX VERSION / TYPE
fic2rin                                 07/16/2017 00:07:23 PGM / RUN BY / DATE
                                                            END OF HEADER
26 17  7 15  8  0  0.0 -.473570544273D-03  .738964445191D-11  .000000000000D+00
     .790000000000D+02 -.112500000000D+02  .444161358246D-08 -.296344165273D+00
    -.704079866409D-06  .180852587800D-02  .965036451817D-05  .515373823929D+04
     .547200000000D+06  .577419996262D-07  .899067705687D+00 -.186264514923D-07
     .958667844044D+00  .193312500000D+03  .770198617178D-01 -.809069415274D-08
    -.421088968617D-09  .100000000000D+01  .195700000000D+04  .000000000000D+00
     .240000000000D+01  .000000000000D+00  .745058059692D-08  .790000000000D+02
     .540006000000D+06  .400000000000D+01
27 17  7 15  8  0  0.0  .293926801533D-03  .659383658785D-11  .000000000000D+00
     .115000000000D+03  .381250000000D+02  .405659754500D-08 -.206250738792D+01
     .206939876080D-05  .490206677932D-02  .750459730625D-05  .515366901970D+04
     .547200000000D+06 -.130385160446D-07  .195533010490D+01 -.391155481339D-07
     .975097261103D+00  .243000000000D+03  .390216726230D+00 -.792247285994D-08
     .300726812193D-09  .100000000000D+01  .195700000000D+04  .000000000000D+00
     .240000000000D+01  .000000000000D+00  .139698386192D-08  .115000000000D+03
     .540006000000D+06  .400000000000D+01
28 17  7 15  8  0  0.0  .629153568298D-03  .318323145621D-11  .000000000000D+00
     .600000000000D+01  .107187500000D+02  .383015954152D-08 -.118244115065D+01
     .612810254097D-06  .197217086097D-01  .927224755287D-05  .515365821457D+04
     .547200000000D+06 -.311061739922D-06  .994619858984D+00  .370666384697D-06
     .988268031067D+00  .219062500000D+03 -.156703116918D+01 -.796640326124D-08
    -.321441960776D-09  .100000000000D+01  .195700000000D+04  .000000000000D+00
     .240000000000D+01  .000000000000D+00 -.111758708954D-07  .600000000000D+01
     .540006000000D+06  .400000000000D+01
29 17  7 15  8  0  0.0  .585291069001D-03 -.375166564481D-11  .000000000000D+00
     .960000000000D+02  .485312500000D+02  .409588489576D-08 -.613411191267D+00
     .242330133915D-05  .652839429677D-03  .697374343872D-05  .515360051346D+04
     .547200000000D+06  .558793544769D-07  .201780543027D+01  .260770320892D-07
     .981374847390D+00  .255656250000D+03  .662541378536D+00 -.802176271004D-08
     .253939149013D-09  .100000000000D+01  .195700000000D+04  .000000000000D+00
     .340000000000D+01  .000000000000D+00 -.977888703346D-08  .960000000000D+02
     .540006000000D+06  .400000000000D+01
30 17  7 15  8  0  0.0  .150244683027D-03 -.159161572810D-11  .000000000000D+00
     .620000000000D+02  .434375000000D+01  .522807491316D-08  .139158595234D+01
     .406056642532D-06  .299092929345D-02  .527501106262D-05  .515365480804D+04
     .547200000000D+06  .128522515297D-06 -.756074552740D-01 -.353902578354D-07
     .947758095895D+00  .268656250000D+03 -.312533881011D+01 -.855428489173D-08
    -.305727020472D-09  .100000000000D+01  .195700000000D+04  .000000000000D+00
     .240000000000D+01  .000000000000D+00  .372529029846D-08  .620000000000D+02
     .540006000000D+06  .400000000000D+01
31 17  7 15  8  0  0.0  .188332982361D-03 -.238742359215D-11  .000000000000D+00
     .103000000000D+03  .378125000000D+01  .482662961993D-08  .120519055814D+01
     .327825546265D-06  .842359184753D-02  .537559390068D-05  .515373290443D+04
     .547200000000D+06  .856816768646D-07 -.102669571594D+00  .707805156708D-07
     .966772287318D+00  .274312500000D+03 -.251452769971D+00 -.828248785601D-08
    -.363229415677D-09  .100000000000D+01  .195700000000D+04  .000000000000D+00
     .340000000000D+01  .000000000000D+00 -.135041773319D-07  .103000000000D+03
     .540006000000D+06  .400000000000D+01
32 17  7 15  8  0  0.0 -.463162548840D-03 -.807176547823D-11  .000000000000D+00
     .830000000000D+02  .485625000000D+02  .480270005173D-08 -.146623745209D+01
     .257417559624D-05  .138237827923D-02  .895746052265D-05  .515374275208D+04
     .547200000000D+06  .391155481339D-07 -.118884785848D+01  .409781932831D-07
     .957507681250D+00  .203593750000D+03 -.253654477334D+01 -.815105380982D-08
     .407159816984D-09  .100000000000D+01  .195700000000D+04  .000000000000D+00
     .240000000000D+01  .000000000000D+00  .465661287308D-09  .830000000000D+02
     .540006000000D+06  .400000000000D+01
22 17  7 15  7 59 44.0 -.551901757717D-04 -.123918653117D-10  .000000000000D+00
     .180000000000D+02 -.577812500000D+02  .521307428833D-08 -.266945928531D+01
    -.320747494698D-05  .746096391231D-02  .951066613197D-05  .515378370857D+04
     .547184000000D+06  .987201929092D-07 -.227621264946D+01 -.186264514923D-07
     .923834601556D+00  .171250000000D+03 -.170396491545D+01 -.826070123422D-08
     .457161899771D-10  .100000000000D+01  .195700000000D+04  .000000000000D+00
     .240000000000D+01  .000000000000D+00 -.176951289177D-07  .180000000000D+02
     .543216000000D+06  .400000000000D+01
21 17  7 15  7 59 44.0 -.494300387800D-03  .261479726760D-11  .000000000000D+00
     .100000000000D+01 -.406250000000D+02  .526807657939D-08  .276220365116D+00
    -.209361314774D-05  .239485271741D-01  .490248203278D-05  .515364041138D+04
     .547184000000D+06 -.473111867905D-06  .296732793264D+01 -.111758708954D-06
     .940574101658D+00  .280406250000D+03 -.165768714925D+01 -.897323091394D-08
    -.100361323309D-09  .100000000000D+01  .195700000000D+04  .000000000000D+00
     .240000000000D+01  .000000000000D+00 -.977888703346D-08  .100000000000D+01
     .543456000000D+06  .400000000000D+01
31 17  7 15  7 59 44.0  .188331585377D-03 -.238742359215D-11  .000000000000D+00
     .700000000000D+01  .378125000000D+01  .482662961993D-08  .120285715992D+01
     .327825546265D-06  .842359417584D-02  .537559390068D-05  .515373290062D+04
     .547184000000D+06  .856816768646D-07 -.102669432617D+00  .707805156708D-07
     .966772294632D+00  .274312500000D+03 -.251453059629D+00 -.828248785601D-08
    -.363229415677D-09  .100000000000D+01  .195700000000D+04  .000000000000D+00
     .240000000000D+01  .000000000000D+00 -.135041773319D-07  .700000000000D+01
     .543576000000D+06  .400000000000D+01
21 17  7 15  9 59 44.0 -.494281761348D-03  .261479726760D-11  .000000000000D+00
     .420000000000D+02 -.495937500000D+02  .523271796371D-08  .132638200241D+01
    -.307708978653D-05  .239492569817D-01  .477395951748D-05  .515364288330D+04
     .554384000000D+06 -.283122062683D-06  .296726299371D+01 -.556930899620D-06
     .940573895387D+00  .282406250000D+03 -.165764217038D+01 -.875679332702D-08
    -.732173355102D-10  .100000000000D+01  .195700000000D+04  .000000000000D+00
     .240000000000D+01  .000000000000D+00 -.977888703346D-08  .420000000000D+02
     .547206000000D+06  .400000000000D+01
22 17  7 15  9 59 44.0 -.552800484002D-04 -.123918653117D-10  .000000000000D+00
     .290000000000D+02 -.552187500000D+02  .519128766654D-08 -.161941957638D+01
    -.263378024101D-05  .746093154885D-02  .985711812973D-05  .515378281021D+04
     .554384000000D+06  .135973095894D-06 -.227627195616D+01  .141561031342D-06
     .923834278252D+00  .165562500000D+03 -.170388659081D+01 -.838427781025D-08
    -.221437795202D-10  .100000000000D+01  .195700000000D+04  .000000000000D+00
     .240000000000D+01  .000000000000D+00 -.176951289177D-07  .290000000000D+02
     .547206000000D+06  .400000000000D+01
31 17  7 15  9 59 44.0  .188313890249D-03 -.238742359215D-11  .000000000000D+00
     .440000000000D+02  .303125000000D+01  .487841749138D-08  .225299356481D+01
     .359490513802D-06  .842351606116D-02  .568106770515D-05  .515373309517D+04
     .554384000000D+06  .186264514923D-08 -.102729611215D+00  .232830643654D-06
     .966769965667D+00  .273500000000D+03 -.251441948766D+00 -.826105839196D-08
    -.243224416988D-09  .100000000000D+01  .195700000000D+04  .000000000000D+00
     .240000000000D+01  .000000000000D+00 -.135041773319D-07  .440000000000D+02
     .547206000000D+06  .400000000000D+01
 1 17  7 15 10  0  0.0  .568195246160D-04  .341060513165D-12  .000000000000D+00
     .480000000000D+02 -.400312500000D+02  .442125559161D-08  .309258561476D+01
    -.212341547012D-05  .687792315148D-02  .504218041897D-05  .515368214798D+04
     .554400000000D+06 -.130385160446D-07  .301262668333D+01 -.242143869400D-07
     .968247834769D+00  .286718750000D+03  .582003481181D+00 -.813141013444D-08
     .182150444440D-10  .100000000000D+01  .195700000000D+04  .000000000000D+00
     .240000000000D+01  .000000000000D+00  .558793544769D-08  .480000000000D+02
     .547206000000D+06  .400000000000D+01
 2 17  7 15 10  0  0.0  .376664567739D-03 -.841282599140D-11  .000000000000D+00
     .860000000000D+02 -.420625000000D+02  .479734268572D-08 -.287588638604D+01
    -.204704701900D-05  .169371636584D-01  .440329313278D-05  .515354663467D+04
     .554400000000D+06  .210478901863D-06  .295823198786D+01 -.135973095894D-06
     .947178587230D+00  .285062500000D+03 -.197080294470D+01 -.812748139937D-08
     .478591363823D-10  .100000000000D+01  .195700000000D+04  .000000000000D+00
     .240000000000D+01  .000000000000D+00 -.204890966415D-07  .860000000000D+02
     .547206000000D+06  .400000000000D+01
 3 17  7 15 10  0  0.0 -.873743556440D-04  .306954461848D-11  .000000000000D+00
     .360000000000D+02 -.575625000000D+02  .433696636634D-08  .236584416702D+01
    -.294856727123D-05  .796700362116D-03  .102091580629D-04  .515370508957D+04
     .554400000000D+06  .260770320892D-07 -.222846321255D+01 -.260770320892D-07
     .959979058981D+00  .178531250000D+03  .180088384238D+00 -.799497587998D-08
    -.285726187357D-10  .100000000000D+01  .195700000000D+04  .000000000000D+00
     .240000000000D+01  .000000000000D+00  .232830643654D-08  .360000000000D+02
     .547206000000D+06  .400000000000D+01
